[{"OBJECT_NAME":"AEROCUBE 18A","OBJECT_ID":"2025-052L","EPOCH":"2026-03-09T22:34:41.135232","MEAN_MOTION":15.23215068,"ECCENTRICITY":0.00058387,"INCLINATION":97.4079,"RA_OF_ASC_NODE":323.7178,"ARG_OF_PERICENTER":105.4164,"MEAN_ANOMALY":254.7718,"EPHEMERIS_TYPE":0,"CLASSIFICATION_TYPE":"U","NORAD_CAT_ID":63220,"ELEMENT_SET_NO":999,"REV_AT_EPOCH":5478,"BSTAR":0.00035659101,"MEAN_MOTION_DOT":8.374e-5,"MEAN_MOTION_DDOT":0},{"OBJECT_NAME":"CZ-6A DEB","OBJECT_ID":"2024-140EZ","EPOCH":"2026-03-09T16:13:02.096544","MEAN_MOTION":15.06200416,"ECCENTRICITY":0.00757943,"INCLINATION":89.319,"RA_OF_ASC_NODE":303.8689,"ARG_OF_PERICENTER":93.3463,"MEAN_ANOMALY":267.6449,"EPHEMERIS_TYPE":0,"CLASSIFICATION_TYPE":"U","NORAD_CAT_ID":60774,"ELEMENT_SET_NO":999,"REV_AT_EPOCH":8499,"BSTAR":0.003121721,"MEAN_MOTION_DOT":0.00049072,"MEAN_MOTION_DDOT":0}]
